OPTICUBE 04             
1 41851U 16067D   26068.51005515  .00003771  00000+0  24102-3 0  9992
2 41851  98.0811 275.5525 0017089  94.6311 265.6869 15.09188144510131
STARLINK-3724           
1 52305U 22041AW  26068.40005690  .00006143  00000+0  40370-3 0  9990
2 52305  53.2173 100.5251 0001474  86.0377 274.0784 15.08841424214465
